COSMOS 2413 (712)       
1 28509U 04053B   15041.14545498  .00000085  00000-0  10000-3 0  9994
2 28509  63.1491 207.6606 0005409 163.0956  84.2927  2.13101802 78796
COSMOS 2419 (714)       
1 28915U 05050A   15040.40999951  .00000002  00000-0  00000+0 0  9992
2 28915  65.1206  94.8418 0016038 345.6364  50.6034  2.13107660 71035
COSMOS 2425 (716)       
1 29670U 06062A   15041.44487226 -.00000045  00000-0  10000-3 0  9990
2 29670  65.8138 333.6927 0023680 343.3012 194.1820  2.13104947 63257
COSMOS 2426 (717)       
1 29671U 06062B   15040.81128549 -.00000045  00000-0  10000-3 0  9991
2 29671  65.8303 333.7832 0014755 169.8413 106.0027  2.13102986 63248
COSMOS 2424 (715)       
1 29672U 06062C   15040.77131043 -.00000045  00000-0  10000-3 0  9990
2 29672  65.8144 333.7222 0014248 168.7606 254.1206  2.13101968 63247
COSMOS 2433 (720)       
1 32275U 07052A   15040.87804054  .00000002  00000-0  10000-3 0  9995
2 32275  65.1351  94.5869 0004218 255.7773  37.7226  2.13105102 56759
COSMOS 2432 (719)       
1 32276U 07052B   15041.10934340  .00000002  00000-0  10000-3 0  9995
2 32276  65.1480  94.6370 0012158 330.5684  95.3371  2.13104335 56765
COSMOS 2434 (721)       
1 32393U 07065A   15041.20247066 -.00000045  00000-0  00000+0 0  9995
2 32393  65.4346 333.2566 0002192  79.8887 358.9997  2.13102695 55479
COSMOS 2436 (723)       
1 32395U 07065C   15040.40631594 -.00000045  00000-0  10000-3 0  9996
2 32395  65.4483 333.3181 0018905 349.3701 290.7198  2.13102816 55387
COSMOS 2443 (725)       
1 33379U 08046B   15040.65096244  .00000002  00000-0  10000-3 0  9995
2 33379  65.0626  94.0601 0019286 189.4697 200.9963  2.13101562 49623
COSMOS 2456 (730)       
1 36111U 09070A   15040.49657478  .00000084  00000-0  00000+0 0  9999
2 36111  64.2073 212.9979 0003910 351.5939  72.6651  2.13102955 40125
COSMOS 2457 (733)       
1 36112U 09070B   15040.62706654  .00000085  00000-0  00000+0 0  9997
2 36112  64.1889 212.9316 0007467 142.9485 154.0766  2.13101515 40127
COSMOS 2458 (734)       
1 36113U 09070C   15040.70523723  .00000086  00000-0  10000-3 0  9997
2 36113  64.1945 212.9311 0003345  59.1891 344.5783  2.13101959 40135
COSMOS 2459 (731)       
1 36400U 10007A   15040.60018365  .00000002  00000-0  10000-3 0  9996
2 36400  65.0406  93.8105 0028792 350.1912 319.8915  2.13102413 38476
COSMOS 2461 (735)       
1 36401U 10007B   15041.43526200  .00000003  00000-0  10000-3 0  9992
2 36401  65.0339  93.7681 0004091  79.4003  61.8347  2.13102435 38497
COSMOS 2460 (732)       
1 36402U 10007C   15041.13922924  .00000002  00000-0  10000-3 0  9992
2 36402  65.0241  93.7613 0001738 244.6372  72.1254  2.13102081 38483
COSMOS 2466 (738)       
1 37137U 10041A   15040.44493124 -.00000046  00000-0  10000-3 0  9993
2 37137  65.0196 333.6404 0018316 154.9570 286.6081  2.13102317 34551
COSMOS 2465 (737)       
1 37138U 10041B   15041.17910419 -.00000046  00000-0  00000+0 0  9991
2 37138  65.0350 333.6781 0032638 169.9191 296.9394  2.13102718 34567
COSMOS 2464 (736)       
1 37139U 10041C   15041.47271627 -.00000046  00000-0  00000+0 0  9996
2 37139  65.0375 333.6590 0022900   9.2465  97.3716  2.13102759 34571
COSMOS 2471 (701K)      
1 37372U 11009A   15041.43263483  .00000003  00000-0  00000+0 0  9999
2 37372  65.0216  93.7030 0009051 235.4603  77.3271  2.13103039 30769
COSMOS 2474 (742)       
1 37829U 11055A   15041.49915640  .00000093  00000-0  00000+0 0  9991
2 37829  64.5309 213.1719 0005240 256.0716  80.9744  2.13101905 26136
COSMOS 2476 (744)       
1 37867U 11064A   15041.44519203  .00000093  00000-0  00000+0 0  9993
2 37867  64.5108 213.2677 0013883 250.2569  90.9908  2.13102009 25489
COSMOS 2477 (745)       
1 37868U 11064B   15040.59944241  .00000086  00000-0  00000+0 0  9995
2 37868  64.5194 213.3318 0011907 251.6795 340.3064  2.13101865 25427
COSMOS 2475 (743)       
1 37869U 11064C   15041.31234459  .00000092  00000-0  00000+0 0  9997
2 37869  64.5268 213.2908 0018532 283.2347  91.4883  2.13102057 25459
COSMOS 2478 (746)       
1 37938U 11071A   15040.43197351  .00000002  00000-0  00000+0 0  9994
2 37938  65.0509  93.9386 0015027 240.1403 164.6956  2.13102438 25046
COSMOS 2485 (747)       
1 39155U 13019A   15041.45163483  .00000093  00000-0  00000+0 0  9993
2 39155  64.6802 213.1101 0014097 243.6613 147.8190  2.13102071 13962
COSMOS 2492 (754)       
1 39620U 14012A   15040.35546872  .00000006  00000-0  10387+2 0  9994
2 39620  64.9117  93.8468 0016123 328.4017 333.5927  2.13103676  6902
COSMOS 2500 (755)       
1 40001U 14032A   15040.64851830  .00000001  00000-0  00000+0 0  9990
2 40001  64.8521  93.8983 0007593 213.7862 177.5759  2.13103020  5116
COSMOS 2501 (702K)      
1 40315U 14075A   15039.58938881 -.00000048  00000-0  00000+0 0  9990
2 40315  64.8090 335.3310 0017219 245.1288 217.9111  2.13101792  1492
